<?xml version="1.0" encoding="UTF-8"?>
<gpx xmlns:gpxdata="http://www.cluetrust.com/XML/GPXDATA/1/0" xmlns:xsi="http://www.w3.org/2001/XMLSchema-instance" xmlns="http://www.topografix.com/GPX/1/1" version="1.1" creator="http://ridewithgps.com/" xsi:schemaLocation="http://www.topografix.com/GPX/1/1 http://www.topografix.com/GPX/1/1/gpx.xsd http://www.cluetrust.com/XML/GPXDATA/1/0 http://www.cluetrust.com/Schemas/gpxdata10.xsd">
  <metadata>
    <name>Nurburgring</name>
    <link href="https://ridewithgps.com/routes/53175729">
      <text>Nurburgring</text>
    </link>
    <time>2025-10-31T09:37:49Z</time>
  </metadata>
  <trk>
    <name>Nurburgring</name>
    <trkseg>
      <trkpt lat="50.338748" lon="6.949186">
        <ele>625.0</ele>
      </trkpt>
      <trkpt lat="50.33895" lon="6.94891">
        <ele>625.0</ele>
      </trkpt>
      <trkpt lat="50.339097" lon="6.94877">
        <ele>625.8</ele>
      </trkpt>
      <trkpt lat="50.339204" lon="6.94864">
        <ele>626.6</ele>
      </trkpt>
      <trkpt lat="50.339281" lon="6.948499">
        <ele>627.4</ele>
      </trkpt>
      <trkpt lat="50.339323" lon="6.948301">
        <ele>627.6</ele>
      </trkpt>
      <trkpt lat="50.339296" lon="6.948151">
        <ele>627.0</ele>
      </trkpt>
      <trkpt lat="50.339215" lon="6.947986">
        <ele>625.8</ele>
      </trkpt>
      <trkpt lat="50.339115" lon="6.947812">
        <ele>624.8</ele>
      </trkpt>
      <trkpt lat="50.338975" lon="6.947698">
        <ele>623.0</ele>
      </trkpt>
      <trkpt lat="50.33878" lon="6.947518">
        <ele>620.2</ele>
      </trkpt>
      <trkpt lat="50.338597" lon="6.947355">
        <ele>618.6</ele>
      </trkpt>
      <trkpt lat="50.33835" lon="6.947147">
        <ele>615.8</ele>
      </trkpt>
      <trkpt lat="50.338183" lon="6.946994">
        <ele>613.6</ele>
      </trkpt>
      <trkpt lat="50.338112" lon="6.946922">
        <ele>613.2</ele>
      </trkpt>
      <trkpt lat="50.33803" lon="6.946807">
        <ele>612.8</ele>
      </trkpt>
      <trkpt lat="50.337917" lon="6.946605">
        <ele>612.2</ele>
      </trkpt>
      <trkpt lat="50.337725" lon="6.946183">
        <ele>609.4</ele>
      </trkpt>
      <trkpt lat="50.337553" lon="6.945702">
        <ele>605.4</ele>
      </trkpt>
      <trkpt lat="50.337429" lon="6.94529">
        <ele>601.6</ele>
      </trkpt>
      <trkpt lat="50.337355" lon="6.944962">
        <ele>599.2</ele>
      </trkpt>
      <trkpt lat="50.337325" lon="6.944751">
        <ele>597.6</ele>
      </trkpt>
      <trkpt lat="50.337323" lon="6.94459">
        <ele>596.8</ele>
      </trkpt>
      <trkpt lat="50.337349" lon="6.944262">
        <ele>596.0</ele>
      </trkpt>
      <trkpt lat="50.337439" lon="6.943817">
        <ele>594.0</ele>
      </trkpt>
      <trkpt lat="50.3376" lon="6.943328">
        <ele>591.2</ele>
      </trkpt>
      <trkpt lat="50.337755" lon="6.94283">
        <ele>589.0</ele>
      </trkpt>
      <trkpt lat="50.337873" lon="6.942493">
        <ele>588.8</ele>
      </trkpt>
      <trkpt lat="50.337918" lon="6.942322">
        <ele>588.4</ele>
      </trkpt>
      <trkpt lat="50.337985" lon="6.941981">
        <ele>587.2</ele>
      </trkpt>
      <trkpt lat="50.338037" lon="6.941522">
        <ele>586.0</ele>
      </trkpt>
      <trkpt lat="50.338114" lon="6.940128">
        <ele>585.2</ele>
      </trkpt>
      <trkpt lat="50.338124" lon="6.939945">
        <ele>585.4</ele>
      </trkpt>
      <trkpt lat="50.33811" lon="6.93981">
        <ele>585.2</ele>
      </trkpt>
      <trkpt lat="50.338063" lon="6.939647">
        <ele>584.4</ele>
      </trkpt>
      <trkpt lat="50.337982" lon="6.939351">
        <ele>582.8</ele>
      </trkpt>
      <trkpt lat="50.337928" lon="6.939116">
        <ele>581.8</ele>
      </trkpt>
      <trkpt lat="50.337935" lon="6.938891">
        <ele>580.8</ele>
      </trkpt>
      <trkpt lat="50.337962" lon="6.938689">
        <ele>580.0</ele>
      </trkpt>
      <trkpt lat="50.338064" lon="6.938452">
        <ele>580.2</ele>
      </trkpt>
      <trkpt lat="50.338176" lon="6.938253">
        <ele>580.6</ele>
      </trkpt>
      <trkpt lat="50.338346" lon="6.937996">
        <ele>581.2</ele>
      </trkpt>
      <trkpt lat="50.338494" lon="6.937857">
        <ele>582.6</ele>
      </trkpt>
      <trkpt lat="50.338721" lon="6.937685">
        <ele>583.6</ele>
      </trkpt>
      <trkpt lat="50.338908" lon="6.937555">
        <ele>583.6</ele>
      </trkpt>
      <trkpt lat="50.338981" lon="6.937431">
        <ele>583.0</ele>
      </trkpt>
      <trkpt lat="50.33912" lon="6.937077">
        <ele>583.0</ele>
      </trkpt>
      <trkpt lat="50.339259" lon="6.936803">
        <ele>581.4</ele>
      </trkpt>
      <trkpt lat="50.339382" lon="6.936575">
        <ele>580.2</ele>
      </trkpt>
      <trkpt lat="50.339528" lon="6.936481">
        <ele>579.6</ele>
      </trkpt>
      <trkpt lat="50.33969" lon="6.936423">
        <ele>579.0</ele>
      </trkpt>
      <trkpt lat="50.339841" lon="6.936348">
        <ele>578.2</ele>
      </trkpt>
      <trkpt lat="50.339903" lon="6.936258">
        <ele>578.0</ele>
      </trkpt>
      <trkpt lat="50.339957" lon="6.936129">
        <ele>578.0</ele>
      </trkpt>
      <trkpt lat="50.340016" lon="6.935773">
        <ele>577.4</ele>
      </trkpt>
      <trkpt lat="50.340187" lon="6.934168">
        <ele>580.8</ele>
      </trkpt>
      <trkpt lat="50.340232" lon="6.933927">
        <ele>582.0</ele>
      </trkpt>
      <trkpt lat="50.340291" lon="6.93377">
        <ele>583.0</ele>
      </trkpt>
      <trkpt lat="50.340407" lon="6.933632">
        <ele>584.2</ele>
      </trkpt>
      <trkpt lat="50.34052" lon="6.933543">
        <ele>584.2</ele>
      </trkpt>
      <trkpt lat="50.340738" lon="6.933486">
        <ele>582.4</ele>
      </trkpt>
      <trkpt lat="50.340914" lon="6.933446">
        <ele>581.2</ele>
      </trkpt>
      <trkpt lat="50.341048" lon="6.933388">
        <ele>579.6</ele>
      </trkpt>
      <trkpt lat="50.341154" lon="6.9333">
        <ele>577.8</ele>
      </trkpt>
      <trkpt lat="50.341256" lon="6.933181">
        <ele>576.2</ele>
      </trkpt>
      <trkpt lat="50.341381" lon="6.93296">
        <ele>574.8</ele>
      </trkpt>
      <trkpt lat="50.341757" lon="6.932055">
        <ele>569.4</ele>
      </trkpt>
      <trkpt lat="50.342284" lon="6.930828">
        <ele>562.8</ele>
      </trkpt>
      <trkpt lat="50.342753" lon="6.929825">
        <ele>559.0</ele>
      </trkpt>
      <trkpt lat="50.342919" lon="6.929456">
        <ele>558.2</ele>
      </trkpt>
      <trkpt lat="50.343034" lon="6.929226">
        <ele>556.8</ele>
      </trkpt>
      <trkpt lat="50.343183" lon="6.928974">
        <ele>556.2</ele>
      </trkpt>
      <trkpt lat="50.343682" lon="6.928315">
        <ele>561.2</ele>
      </trkpt>
      <trkpt lat="50.344453" lon="6.927335">
        <ele>572.4</ele>
      </trkpt>
      <trkpt lat="50.345048" lon="6.926587">
        <ele>579.8</ele>
      </trkpt>
      <trkpt lat="50.34525" lon="6.926315">
        <ele>580.4</ele>
      </trkpt>
      <trkpt lat="50.345422" lon="6.926124">
        <ele>580.8</ele>
      </trkpt>
      <trkpt lat="50.345583" lon="6.926009">
        <ele>581.2</ele>
      </trkpt>
      <trkpt lat="50.345772" lon="6.925932">
        <ele>581.8</ele>
      </trkpt>
      <trkpt lat="50.346075" lon="6.925879">
        <ele>582.2</ele>
      </trkpt>
      <trkpt lat="50.346478" lon="6.925815">
        <ele>582.6</ele>
      </trkpt>
      <trkpt lat="50.34664" lon="6.925812">
        <ele>583.2</ele>
      </trkpt>
      <trkpt lat="50.346732" lon="6.925851">
        <ele>583.2</ele>
      </trkpt>
      <trkpt lat="50.346915" lon="6.92595">
        <ele>583.2</ele>
      </trkpt>
      <trkpt lat="50.347278" lon="6.926197">
        <ele>583.8</ele>
      </trkpt>
      <trkpt lat="50.347674" lon="6.926456">
        <ele>585.4</ele>
      </trkpt>
      <trkpt lat="50.347827" lon="6.926554">
        <ele>584.4</ele>
      </trkpt>
      <trkpt lat="50.348009" lon="6.926631">
        <ele>584.0</ele>
      </trkpt>
      <trkpt lat="50.348163" lon="6.926673">
        <ele>584.0</ele>
      </trkpt>
      <trkpt lat="50.348481" lon="6.926753">
        <ele>583.4</ele>
      </trkpt>
      <trkpt lat="50.349236" lon="6.926917">
        <ele>584.2</ele>
      </trkpt>
      <trkpt lat="50.349444" lon="6.926945">
        <ele>584.6</ele>
      </trkpt>
      <trkpt lat="50.349577" lon="6.926966">
        <ele>584.6</ele>
      </trkpt>
      <trkpt lat="50.349722" lon="6.926952">
        <ele>585.2</ele>
      </trkpt>
      <trkpt lat="50.350284" lon="6.926894">
        <ele>585.2</ele>
      </trkpt>
      <trkpt lat="50.350915" lon="6.926805">
        <ele>580.0</ele>
      </trkpt>
      <trkpt lat="50.351169" lon="6.926756">
        <ele>576.8</ele>
      </trkpt>
      <trkpt lat="50.351369" lon="6.926716">
        <ele>574.0</ele>
      </trkpt>
      <trkpt lat="50.351754" lon="6.926578">
        <ele>568.8</ele>
      </trkpt>
      <trkpt lat="50.352134" lon="6.926424">
        <ele>564.6</ele>
      </trkpt>
      <trkpt lat="50.352524" lon="6.926188">
        <ele>562.6</ele>
      </trkpt>
      <trkpt lat="50.353081" lon="6.925807">
        <ele>559.6</ele>
      </trkpt>
      <trkpt lat="50.353735" lon="6.925336">
        <ele>560.2</ele>
      </trkpt>
      <trkpt lat="50.354004" lon="6.925149">
        <ele>560.2</ele>
      </trkpt>
      <trkpt lat="50.354184" lon="6.925029">
        <ele>560.0</ele>
      </trkpt>
      <trkpt lat="50.354644" lon="6.924747">
        <ele>559.4</ele>
      </trkpt>
      <trkpt lat="50.354972" lon="6.924551">
        <ele>558.0</ele>
      </trkpt>
      <trkpt lat="50.355398" lon="6.924288">
        <ele>556.2</ele>
      </trkpt>
      <trkpt lat="50.355612" lon="6.924163">
        <ele>556.6</ele>
      </trkpt>
      <trkpt lat="50.355782" lon="6.924">
        <ele>556.6</ele>
      </trkpt>
      <trkpt lat="50.355909" lon="6.9239">
        <ele>557.0</ele>
      </trkpt>
      <trkpt lat="50.356124" lon="6.923647">
        <ele>555.2</ele>
      </trkpt>
      <trkpt lat="50.356344" lon="6.923367">
        <ele>552.6</ele>
      </trkpt>
      <trkpt lat="50.356543" lon="6.923012">
        <ele>549.0</ele>
      </trkpt>
      <trkpt lat="50.356655" lon="6.922784">
        <ele>547.2</ele>
      </trkpt>
      <trkpt lat="50.356846" lon="6.922296">
        <ele>544.4</ele>
      </trkpt>
      <trkpt lat="50.356962" lon="6.921942">
        <ele>542.4</ele>
      </trkpt>
      <trkpt lat="50.357365" lon="6.920562">
        <ele>536.4</ele>
      </trkpt>
      <trkpt lat="50.357462" lon="6.920355">
        <ele>535.8</ele>
      </trkpt>
      <trkpt lat="50.35762" lon="6.920134">
        <ele>535.0</ele>
      </trkpt>
      <trkpt lat="50.357736" lon="6.92008">
        <ele>534.4</ele>
      </trkpt>
      <trkpt lat="50.357862" lon="6.920055">
        <ele>533.4</ele>
      </trkpt>
      <trkpt lat="50.358002" lon="6.920062">
        <ele>532.2</ele>
      </trkpt>
      <trkpt lat="50.358122" lon="6.92013">
        <ele>531.0</ele>
      </trkpt>
      <trkpt lat="50.358246" lon="6.920268">
        <ele>529.6</ele>
      </trkpt>
      <trkpt lat="50.358346" lon="6.920473">
        <ele>528.8</ele>
      </trkpt>
      <trkpt lat="50.358453" lon="6.920733">
        <ele>527.4</ele>
      </trkpt>
      <trkpt lat="50.358515" lon="6.920991">
        <ele>526.8</ele>
      </trkpt>
      <trkpt lat="50.358663" lon="6.921515">
        <ele>526.0</ele>
      </trkpt>
      <trkpt lat="50.358756" lon="6.921909">
        <ele>526.2</ele>
      </trkpt>
      <trkpt lat="50.3589" lon="6.922495">
        <ele>525.4</ele>
      </trkpt>
      <trkpt lat="50.359076" lon="6.923095">
        <ele>518.2</ele>
      </trkpt>
      <trkpt lat="50.359165" lon="6.923424">
        <ele>513.4</ele>
      </trkpt>
      <trkpt lat="50.359271" lon="6.923698">
        <ele>510.0</ele>
      </trkpt>
      <trkpt lat="50.359363" lon="6.923943">
        <ele>509.8</ele>
      </trkpt>
      <trkpt lat="50.35957" lon="6.924289">
        <ele>509.0</ele>
      </trkpt>
      <trkpt lat="50.359762" lon="6.92461">
        <ele>505.2</ele>
      </trkpt>
      <trkpt lat="50.359856" lon="6.924822">
        <ele>502.4</ele>
      </trkpt>
      <trkpt lat="50.359979" lon="6.925113">
        <ele>500.6</ele>
      </trkpt>
      <trkpt lat="50.360141" lon="6.925464">
        <ele>498.0</ele>
      </trkpt>
      <trkpt lat="50.360301" lon="6.925757">
        <ele>494.4</ele>
      </trkpt>
      <trkpt lat="50.360563" lon="6.926171">
        <ele>490.0</ele>
      </trkpt>
      <trkpt lat="50.361253" lon="6.9272">
        <ele>478.2</ele>
      </trkpt>
      <trkpt lat="50.361406" lon="6.927429">
        <ele>474.6</ele>
      </trkpt>
      <trkpt lat="50.361562" lon="6.927726">
        <ele>471.6</ele>
      </trkpt>
      <trkpt lat="50.361825" lon="6.928224">
        <ele>470.6</ele>
      </trkpt>
      <trkpt lat="50.362" lon="6.928519">
        <ele>467.8</ele>
      </trkpt>
      <trkpt lat="50.362196" lon="6.928801">
        <ele>467.0</ele>
      </trkpt>
      <trkpt lat="50.362453" lon="6.929134">
        <ele>465.8</ele>
      </trkpt>
      <trkpt lat="50.362568" lon="6.929265">
        <ele>465.0</ele>
      </trkpt>
      <trkpt lat="50.362752" lon="6.929457">
        <ele>464.6</ele>
      </trkpt>
      <trkpt lat="50.363619" lon="6.930046">
        <ele>467.4</ele>
      </trkpt>
      <trkpt lat="50.364085" lon="6.930339">
        <ele>468.4</ele>
      </trkpt>
      <trkpt lat="50.364212" lon="6.930385">
        <ele>469.2</ele>
      </trkpt>
      <trkpt lat="50.364512" lon="6.930373">
        <ele>471.6</ele>
      </trkpt>
      <trkpt lat="50.36504" lon="6.930363">
        <ele>476.0</ele>
      </trkpt>
      <trkpt lat="50.365281" lon="6.930442">
        <ele>478.0</ele>
      </trkpt>
      <trkpt lat="50.365457" lon="6.930586">
        <ele>478.6</ele>
      </trkpt>
      <trkpt lat="50.365578" lon="6.930748">
        <ele>478.0</ele>
      </trkpt>
      <trkpt lat="50.365751" lon="6.931144">
        <ele>476.2</ele>
      </trkpt>
      <trkpt lat="50.365889" lon="6.931389">
        <ele>475.2</ele>
      </trkpt>
      <trkpt lat="50.366072" lon="6.931558">
        <ele>475.8</ele>
      </trkpt>
      <trkpt lat="50.366226" lon="6.931652">
        <ele>476.4</ele>
      </trkpt>
      <trkpt lat="50.366378" lon="6.931619">
        <ele>477.4</ele>
      </trkpt>
      <trkpt lat="50.366496" lon="6.9315">
        <ele>478.8</ele>
      </trkpt>
      <trkpt lat="50.366645" lon="6.931293">
        <ele>479.8</ele>
      </trkpt>
      <trkpt lat="50.366774" lon="6.931213">
        <ele>479.6</ele>
      </trkpt>
      <trkpt lat="50.366865" lon="6.931218">
        <ele>479.2</ele>
      </trkpt>
      <trkpt lat="50.367" lon="6.93126">
        <ele>478.4</ele>
      </trkpt>
      <trkpt lat="50.36712" lon="6.931406">
        <ele>477.2</ele>
      </trkpt>
      <trkpt lat="50.367334" lon="6.931769">
        <ele>474.2</ele>
      </trkpt>
      <trkpt lat="50.367514" lon="6.932074">
        <ele>472.0</ele>
      </trkpt>
      <trkpt lat="50.367981" lon="6.932997">
        <ele>468.2</ele>
      </trkpt>
      <trkpt lat="50.368162" lon="6.933342">
        <ele>468.8</ele>
      </trkpt>
      <trkpt lat="50.368273" lon="6.933543">
        <ele>468.6</ele>
      </trkpt>
      <trkpt lat="50.368476" lon="6.933851">
        <ele>467.8</ele>
      </trkpt>
      <trkpt lat="50.368638" lon="6.934073">
        <ele>468.0</ele>
      </trkpt>
      <trkpt lat="50.368897" lon="6.934404">
        <ele>469.4</ele>
      </trkpt>
      <trkpt lat="50.369151" lon="6.934772">
        <ele>469.8</ele>
      </trkpt>
      <trkpt lat="50.369376" lon="6.935149">
        <ele>470.2</ele>
      </trkpt>
      <trkpt lat="50.370019" lon="6.936196">
        <ele>465.2</ele>
      </trkpt>
      <trkpt lat="50.370187" lon="6.936461">
        <ele>464.4</ele>
      </trkpt>
      <trkpt lat="50.370298" lon="6.936614">
        <ele>464.6</ele>
      </trkpt>
      <trkpt lat="50.37056" lon="6.936889">
        <ele>464.4</ele>
      </trkpt>
      <trkpt lat="50.371028" lon="6.937409">
        <ele>462.8</ele>
      </trkpt>
      <trkpt lat="50.37114" lon="6.937499">
        <ele>462.0</ele>
      </trkpt>
      <trkpt lat="50.371257" lon="6.937585">
        <ele>461.2</ele>
      </trkpt>
      <trkpt lat="50.371407" lon="6.937656">
        <ele>460.4</ele>
      </trkpt>
      <trkpt lat="50.371512" lon="6.937683">
        <ele>460.0</ele>
      </trkpt>
      <trkpt lat="50.371674" lon="6.937694">
        <ele>459.4</ele>
      </trkpt>
      <trkpt lat="50.37183" lon="6.937652">
        <ele>459.0</ele>
      </trkpt>
      <trkpt lat="50.372228" lon="6.937511">
        <ele>458.0</ele>
      </trkpt>
      <trkpt lat="50.372882" lon="6.93725">
        <ele>459.8</ele>
      </trkpt>
      <trkpt lat="50.373045" lon="6.937182">
        <ele>461.2</ele>
      </trkpt>
      <trkpt lat="50.373142" lon="6.937095">
        <ele>462.4</ele>
      </trkpt>
      <trkpt lat="50.373213" lon="6.936952">
        <ele>463.8</ele>
      </trkpt>
      <trkpt lat="50.373266" lon="6.93683">
        <ele>465.0</ele>
      </trkpt>
      <trkpt lat="50.373291" lon="6.936634">
        <ele>465.8</ele>
      </trkpt>
      <trkpt lat="50.373288" lon="6.936348">
        <ele>466.2</ele>
      </trkpt>
      <trkpt lat="50.373287" lon="6.936201">
        <ele>465.8</ele>
      </trkpt>
      <trkpt lat="50.373279" lon="6.935978">
        <ele>465.0</ele>
      </trkpt>
      <trkpt lat="50.373284" lon="6.935862">
        <ele>464.8</ele>
      </trkpt>
      <trkpt lat="50.3733" lon="6.935735">
        <ele>464.4</ele>
      </trkpt>
      <trkpt lat="50.373358" lon="6.935506">
        <ele>463.2</ele>
      </trkpt>
      <trkpt lat="50.373416" lon="6.935313">
        <ele>462.4</ele>
      </trkpt>
      <trkpt lat="50.37366" lon="6.934692">
        <ele>456.6</ele>
      </trkpt>
      <trkpt lat="50.37387" lon="6.934249">
        <ele>450.0</ele>
      </trkpt>
      <trkpt lat="50.373994" lon="6.933985">
        <ele>446.6</ele>
      </trkpt>
      <trkpt lat="50.374088" lon="6.933872">
        <ele>445.8</ele>
      </trkpt>
      <trkpt lat="50.3742" lon="6.933739">
        <ele>444.8</ele>
      </trkpt>
      <trkpt lat="50.374323" lon="6.933686">
        <ele>445.0</ele>
      </trkpt>
      <trkpt lat="50.374508" lon="6.933682">
        <ele>442.4</ele>
      </trkpt>
      <trkpt lat="50.374639" lon="6.933772">
        <ele>441.6</ele>
      </trkpt>
      <trkpt lat="50.374741" lon="6.933907">
        <ele>441.0</ele>
      </trkpt>
      <trkpt lat="50.374828" lon="6.934173">
        <ele>441.4</ele>
      </trkpt>
      <trkpt lat="50.375023" lon="6.934741">
        <ele>440.2</ele>
      </trkpt>
      <trkpt lat="50.375205" lon="6.935284">
        <ele>439.2</ele>
      </trkpt>
      <trkpt lat="50.375606" lon="6.936071">
        <ele>435.6</ele>
      </trkpt>
      <trkpt lat="50.375712" lon="6.936254">
        <ele>434.6</ele>
      </trkpt>
      <trkpt lat="50.375847" lon="6.936445">
        <ele>433.0</ele>
      </trkpt>
      <trkpt lat="50.375976" lon="6.936571">
        <ele>431.0</ele>
      </trkpt>
      <trkpt lat="50.376108" lon="6.936668">
        <ele>429.4</ele>
      </trkpt>
      <trkpt lat="50.376247" lon="6.936691">
        <ele>426.8</ele>
      </trkpt>
      <trkpt lat="50.376437" lon="6.936739">
        <ele>423.6</ele>
      </trkpt>
      <trkpt lat="50.376574" lon="6.936801">
        <ele>421.2</ele>
      </trkpt>
      <trkpt lat="50.376787" lon="6.936956">
        <ele>418.0</ele>
      </trkpt>
      <trkpt lat="50.376906" lon="6.937074">
        <ele>416.8</ele>
      </trkpt>
      <trkpt lat="50.377517" lon="6.937713">
        <ele>406.6</ele>
      </trkpt>
      <trkpt lat="50.377587" lon="6.937835">
        <ele>405.2</ele>
      </trkpt>
      <trkpt lat="50.37766" lon="6.938006">
        <ele>404.4</ele>
      </trkpt>
      <trkpt lat="50.377735" lon="6.938209">
        <ele>402.4</ele>
      </trkpt>
      <trkpt lat="50.377789" lon="6.938402">
        <ele>401.0</ele>
      </trkpt>
      <trkpt lat="50.377847" lon="6.938618">
        <ele>398.8</ele>
      </trkpt>
      <trkpt lat="50.377866" lon="6.938836">
        <ele>397.2</ele>
      </trkpt>
      <trkpt lat="50.37787" lon="6.939008">
        <ele>396.4</ele>
      </trkpt>
      <trkpt lat="50.37781" lon="6.939537">
        <ele>394.6</ele>
      </trkpt>
      <trkpt lat="50.377768" lon="6.939779">
        <ele>394.0</ele>
      </trkpt>
      <trkpt lat="50.377704" lon="6.939989">
        <ele>394.0</ele>
      </trkpt>
      <trkpt lat="50.377493" lon="6.940515">
        <ele>392.0</ele>
      </trkpt>
      <trkpt lat="50.37707" lon="6.941476">
        <ele>383.0</ele>
      </trkpt>
      <trkpt lat="50.376933" lon="6.941756">
        <ele>383.6</ele>
      </trkpt>
      <trkpt lat="50.376771" lon="6.942118">
        <ele>382.8</ele>
      </trkpt>
      <trkpt lat="50.376655" lon="6.942292">
        <ele>381.8</ele>
      </trkpt>
      <trkpt lat="50.376545" lon="6.942428">
        <ele>381.0</ele>
      </trkpt>
      <trkpt lat="50.3764" lon="6.942473">
        <ele>381.4</ele>
      </trkpt>
      <trkpt lat="50.376283" lon="6.942578">
        <ele>381.0</ele>
      </trkpt>
      <trkpt lat="50.376187" lon="6.942666">
        <ele>380.6</ele>
      </trkpt>
      <trkpt lat="50.376131" lon="6.942843">
        <ele>379.0</ele>
      </trkpt>
      <trkpt lat="50.37612" lon="6.943037">
        <ele>377.6</ele>
      </trkpt>
      <trkpt lat="50.376157" lon="6.943182">
        <ele>377.4</ele>
      </trkpt>
      <trkpt lat="50.376234" lon="6.943309">
        <ele>376.4</ele>
      </trkpt>
      <trkpt lat="50.37648" lon="6.943543">
        <ele>370.2</ele>
      </trkpt>
      <trkpt lat="50.376583" lon="6.943689">
        <ele>369.2</ele>
      </trkpt>
      <trkpt lat="50.376652" lon="6.943937">
        <ele>369.6</ele>
      </trkpt>
      <trkpt lat="50.376757" lon="6.944703">
        <ele>365.6</ele>
      </trkpt>
      <trkpt lat="50.37683" lon="6.946827">
        <ele>354.0</ele>
      </trkpt>
      <trkpt lat="50.376851" lon="6.947267">
        <ele>350.0</ele>
      </trkpt>
      <trkpt lat="50.376832" lon="6.947462">
        <ele>348.2</ele>
      </trkpt>
      <trkpt lat="50.376782" lon="6.947813">
        <ele>345.0</ele>
      </trkpt>
      <trkpt lat="50.376711" lon="6.948353">
        <ele>342.0</ele>
      </trkpt>
      <trkpt lat="50.376612" lon="6.948871">
        <ele>340.4</ele>
      </trkpt>
      <trkpt lat="50.376569" lon="6.949308">
        <ele>338.8</ele>
      </trkpt>
      <trkpt lat="50.376592" lon="6.949502">
        <ele>338.0</ele>
      </trkpt>
      <trkpt lat="50.376639" lon="6.949701">
        <ele>337.0</ele>
      </trkpt>
      <trkpt lat="50.376776" lon="6.949874">
        <ele>335.4</ele>
      </trkpt>
      <trkpt lat="50.376971" lon="6.950065">
        <ele>333.8</ele>
      </trkpt>
      <trkpt lat="50.377244" lon="6.950274">
        <ele>333.8</ele>
      </trkpt>
      <trkpt lat="50.377341" lon="6.95034">
        <ele>335.0</ele>
      </trkpt>
      <trkpt lat="50.377485" lon="6.950374">
        <ele>336.2</ele>
      </trkpt>
      <trkpt lat="50.377785" lon="6.950388">
        <ele>338.2</ele>
      </trkpt>
      <trkpt lat="50.378003" lon="6.950448">
        <ele>340.6</ele>
      </trkpt>
      <trkpt lat="50.378155" lon="6.950485">
        <ele>342.2</ele>
      </trkpt>
      <trkpt lat="50.378272" lon="6.950543">
        <ele>343.4</ele>
      </trkpt>
      <trkpt lat="50.378385" lon="6.950675">
        <ele>345.6</ele>
      </trkpt>
      <trkpt lat="50.37844" lon="6.950769">
        <ele>347.0</ele>
      </trkpt>
      <trkpt lat="50.37859" lon="6.951187">
        <ele>354.8</ele>
      </trkpt>
      <trkpt lat="50.378681" lon="6.951541">
        <ele>358.4</ele>
      </trkpt>
      <trkpt lat="50.378747" lon="6.95178">
        <ele>359.0</ele>
      </trkpt>
      <trkpt lat="50.378838" lon="6.952131">
        <ele>360.6</ele>
      </trkpt>
      <trkpt lat="50.378942" lon="6.952604">
        <ele>363.6</ele>
      </trkpt>
      <trkpt lat="50.379042" lon="6.953116">
        <ele>364.2</ele>
      </trkpt>
      <trkpt lat="50.379163" lon="6.953808">
        <ele>360.8</ele>
      </trkpt>
      <trkpt lat="50.379298" lon="6.954466">
        <ele>359.8</ele>
      </trkpt>
      <trkpt lat="50.379375" lon="6.955028">
        <ele>362.0</ele>
      </trkpt>
      <trkpt lat="50.37946" lon="6.955566">
        <ele>363.8</ele>
      </trkpt>
      <trkpt lat="50.379494" lon="6.955928">
        <ele>365.8</ele>
      </trkpt>
      <trkpt lat="50.379604" lon="6.956796">
        <ele>368.8</ele>
      </trkpt>
      <trkpt lat="50.379642" lon="6.957241">
        <ele>371.8</ele>
      </trkpt>
      <trkpt lat="50.379683" lon="6.957404">
        <ele>371.6</ele>
      </trkpt>
      <trkpt lat="50.379738" lon="6.957587">
        <ele>371.4</ele>
      </trkpt>
      <trkpt lat="50.380076" lon="6.958272">
        <ele>370.6</ele>
      </trkpt>
      <trkpt lat="50.380451" lon="6.959118">
        <ele>371.8</ele>
      </trkpt>
      <trkpt lat="50.380745" lon="6.95973">
        <ele>375.8</ele>
      </trkpt>
      <trkpt lat="50.380821" lon="6.959943">
        <ele>374.4</ele>
      </trkpt>
      <trkpt lat="50.380866" lon="6.960215">
        <ele>373.8</ele>
      </trkpt>
      <trkpt lat="50.380896" lon="6.960456">
        <ele>371.6</ele>
      </trkpt>
      <trkpt lat="50.380876" lon="6.960656">
        <ele>371.4</ele>
      </trkpt>
      <trkpt lat="50.380835" lon="6.960883">
        <ele>371.8</ele>
      </trkpt>
      <trkpt lat="50.380755" lon="6.961009">
        <ele>373.0</ele>
      </trkpt>
      <trkpt lat="50.380539" lon="6.961205">
        <ele>375.2</ele>
      </trkpt>
      <trkpt lat="50.380336" lon="6.961297">
        <ele>376.4</ele>
      </trkpt>
      <trkpt lat="50.380179" lon="6.96136">
        <ele>377.6</ele>
      </trkpt>
      <trkpt lat="50.379888" lon="6.961384">
        <ele>380.6</ele>
      </trkpt>
      <trkpt lat="50.379314" lon="6.961324">
        <ele>381.8</ele>
      </trkpt>
      <trkpt lat="50.3789" lon="6.961262">
        <ele>379.8</ele>
      </trkpt>
      <trkpt lat="50.378693" lon="6.961254">
        <ele>379.0</ele>
      </trkpt>
      <trkpt lat="50.378384" lon="6.961282">
        <ele>379.8</ele>
      </trkpt>
      <trkpt lat="50.378169" lon="6.961293">
        <ele>380.8</ele>
      </trkpt>
      <trkpt lat="50.37792" lon="6.961337">
        <ele>382.4</ele>
      </trkpt>
      <trkpt lat="50.377623" lon="6.961358">
        <ele>384.8</ele>
      </trkpt>
      <trkpt lat="50.377478" lon="6.961385">
        <ele>387.2</ele>
      </trkpt>
      <trkpt lat="50.37723" lon="6.961454">
        <ele>390.6</ele>
      </trkpt>
      <trkpt lat="50.376999" lon="6.96157">
        <ele>393.0</ele>
      </trkpt>
      <trkpt lat="50.376707" lon="6.961739">
        <ele>395.2</ele>
      </trkpt>
      <trkpt lat="50.376505" lon="6.961871">
        <ele>393.8</ele>
      </trkpt>
      <trkpt lat="50.37639" lon="6.961947">
        <ele>396.6</ele>
      </trkpt>
      <trkpt lat="50.376285" lon="6.962046">
        <ele>398.0</ele>
      </trkpt>
      <trkpt lat="50.376153" lon="6.96221">
        <ele>398.2</ele>
      </trkpt>
      <trkpt lat="50.37607" lon="6.96233">
        <ele>397.2</ele>
      </trkpt>
      <trkpt lat="50.375925" lon="6.962543">
        <ele>398.0</ele>
      </trkpt>
      <trkpt lat="50.375783" lon="6.962746">
        <ele>401.4</ele>
      </trkpt>
      <trkpt lat="50.37566" lon="6.962971">
        <ele>402.2</ele>
      </trkpt>
      <trkpt lat="50.375606" lon="6.963055">
        <ele>403.0</ele>
      </trkpt>
      <trkpt lat="50.375428" lon="6.963501">
        <ele>398.6</ele>
      </trkpt>
      <trkpt lat="50.375301" lon="6.963801">
        <ele>405.0</ele>
      </trkpt>
      <trkpt lat="50.375231" lon="6.963969">
        <ele>407.8</ele>
      </trkpt>
      <trkpt lat="50.37516" lon="6.964252">
        <ele>409.4</ele>
      </trkpt>
      <trkpt lat="50.375018" lon="6.964848">
        <ele>409.4</ele>
      </trkpt>
      <trkpt lat="50.374802" lon="6.96571">
        <ele>408.0</ele>
      </trkpt>
      <trkpt lat="50.374685" lon="6.966213">
        <ele>416.0</ele>
      </trkpt>
      <trkpt lat="50.374602" lon="6.966581">
        <ele>420.8</ele>
      </trkpt>
      <trkpt lat="50.374562" lon="6.966732">
        <ele>422.6</ele>
      </trkpt>
      <trkpt lat="50.374548" lon="6.966847">
        <ele>423.2</ele>
      </trkpt>
      <trkpt lat="50.374519" lon="6.967071">
        <ele>425.0</ele>
      </trkpt>
      <trkpt lat="50.374529" lon="6.967464">
        <ele>426.2</ele>
      </trkpt>
      <trkpt lat="50.374532" lon="6.967863">
        <ele>426.0</ele>
      </trkpt>
      <trkpt lat="50.374535" lon="6.968389">
        <ele>428.6</ele>
      </trkpt>
      <trkpt lat="50.374546" lon="6.968907">
        <ele>430.6</ele>
      </trkpt>
      <trkpt lat="50.374545" lon="6.969208">
        <ele>432.0</ele>
      </trkpt>
      <trkpt lat="50.374528" lon="6.969559">
        <ele>434.0</ele>
      </trkpt>
      <trkpt lat="50.374479" lon="6.970328">
        <ele>436.2</ele>
      </trkpt>
      <trkpt lat="50.374339" lon="6.972046">
        <ele>440.6</ele>
      </trkpt>
      <trkpt lat="50.3743" lon="6.972444">
        <ele>442.4</ele>
      </trkpt>
      <trkpt lat="50.374274" lon="6.972767">
        <ele>446.4</ele>
      </trkpt>
      <trkpt lat="50.374176" lon="6.973497">
        <ele>457.2</ele>
      </trkpt>
      <trkpt lat="50.373853" lon="6.975164">
        <ele>461.0</ele>
      </trkpt>
      <trkpt lat="50.373776" lon="6.975434">
        <ele>459.4</ele>
      </trkpt>
      <trkpt lat="50.373637" lon="6.975806">
        <ele>462.2</ele>
      </trkpt>
      <trkpt lat="50.373471" lon="6.976199">
        <ele>468.4</ele>
      </trkpt>
      <trkpt lat="50.373295" lon="6.976506">
        <ele>471.8</ele>
      </trkpt>
      <trkpt lat="50.373123" lon="6.976806">
        <ele>474.0</ele>
      </trkpt>
      <trkpt lat="50.372988" lon="6.977124">
        <ele>477.2</ele>
      </trkpt>
      <trkpt lat="50.372791" lon="6.977639">
        <ele>481.2</ele>
      </trkpt>
      <trkpt lat="50.372728" lon="6.977838">
        <ele>483.0</ele>
      </trkpt>
      <trkpt lat="50.372577" lon="6.978309">
        <ele>489.6</ele>
      </trkpt>
      <trkpt lat="50.372445" lon="6.978738">
        <ele>493.2</ele>
      </trkpt>
      <trkpt lat="50.372356" lon="6.979128">
        <ele>493.6</ele>
      </trkpt>
      <trkpt lat="50.372297" lon="6.979423">
        <ele>494.6</ele>
      </trkpt>
      <trkpt lat="50.372285" lon="6.979757">
        <ele>496.6</ele>
      </trkpt>
      <trkpt lat="50.37231" lon="6.980121">
        <ele>499.2</ele>
      </trkpt>
      <trkpt lat="50.372354" lon="6.980514">
        <ele>500.8</ele>
      </trkpt>
      <trkpt lat="50.37249" lon="6.980939">
        <ele>504.6</ele>
      </trkpt>
      <trkpt lat="50.372684" lon="6.981535">
        <ele>510.4</ele>
      </trkpt>
      <trkpt lat="50.372822" lon="6.981937">
        <ele>513.8</ele>
      </trkpt>
      <trkpt lat="50.372912" lon="6.9822">
        <ele>515.0</ele>
      </trkpt>
      <trkpt lat="50.373116" lon="6.982618">
        <ele>516.0</ele>
      </trkpt>
      <trkpt lat="50.373538" lon="6.983498">
        <ele>518.8</ele>
      </trkpt>
      <trkpt lat="50.373912" lon="6.984203">
        <ele>521.4</ele>
      </trkpt>
      <trkpt lat="50.374072" lon="6.98453">
        <ele>523.8</ele>
      </trkpt>
      <trkpt lat="50.374161" lon="6.984885">
        <ele>525.4</ele>
      </trkpt>
      <trkpt lat="50.374218" lon="6.985159">
        <ele>526.6</ele>
      </trkpt>
      <trkpt lat="50.374306" lon="6.986053">
        <ele>528.0</ele>
      </trkpt>
      <trkpt lat="50.374423" lon="6.987079">
        <ele>536.4</ele>
      </trkpt>
      <trkpt lat="50.374474" lon="6.987583">
        <ele>540.6</ele>
      </trkpt>
      <trkpt lat="50.374513" lon="6.987856">
        <ele>542.0</ele>
      </trkpt>
      <trkpt lat="50.374576" lon="6.988125">
        <ele>543.0</ele>
      </trkpt>
      <trkpt lat="50.374625" lon="6.988357">
        <ele>543.4</ele>
      </trkpt>
      <trkpt lat="50.374641" lon="6.988508">
        <ele>543.2</ele>
      </trkpt>
      <trkpt lat="50.374641" lon="6.988716">
        <ele>543.4</ele>
      </trkpt>
      <trkpt lat="50.374626" lon="6.988885">
        <ele>543.4</ele>
      </trkpt>
      <trkpt lat="50.374559" lon="6.98905">
        <ele>542.6</ele>
      </trkpt>
      <trkpt lat="50.374451" lon="6.989213">
        <ele>543.0</ele>
      </trkpt>
      <trkpt lat="50.374347" lon="6.989263">
        <ele>542.4</ele>
      </trkpt>
      <trkpt lat="50.374188" lon="6.989284">
        <ele>543.0</ele>
      </trkpt>
      <trkpt lat="50.374115" lon="6.989269">
        <ele>543.2</ele>
      </trkpt>
      <trkpt lat="50.374012" lon="6.989218">
        <ele>543.2</ele>
      </trkpt>
      <trkpt lat="50.373886" lon="6.989146">
        <ele>543.0</ele>
      </trkpt>
      <trkpt lat="50.373798" lon="6.989022">
        <ele>542.4</ele>
      </trkpt>
      <trkpt lat="50.373499" lon="6.988481">
        <ele>544.8</ele>
      </trkpt>
      <trkpt lat="50.373306" lon="6.988101">
        <ele>546.8</ele>
      </trkpt>
      <trkpt lat="50.373153" lon="6.98773">
        <ele>547.8</ele>
      </trkpt>
      <trkpt lat="50.373067" lon="6.987587">
        <ele>548.4</ele>
      </trkpt>
      <trkpt lat="50.372958" lon="6.987422">
        <ele>549.4</ele>
      </trkpt>
      <trkpt lat="50.372869" lon="6.987291">
        <ele>550.8</ele>
      </trkpt>
      <trkpt lat="50.372795" lon="6.987133">
        <ele>551.8</ele>
      </trkpt>
      <trkpt lat="50.372572" lon="6.986665">
        <ele>553.6</ele>
      </trkpt>
      <trkpt lat="50.372461" lon="6.986417">
        <ele>553.6</ele>
      </trkpt>
      <trkpt lat="50.372362" lon="6.98619">
        <ele>554.0</ele>
      </trkpt>
      <trkpt lat="50.372274" lon="6.985939">
        <ele>554.8</ele>
      </trkpt>
      <trkpt lat="50.372202" lon="6.985766">
        <ele>556.0</ele>
      </trkpt>
      <trkpt lat="50.372138" lon="6.985657">
        <ele>557.2</ele>
      </trkpt>
      <trkpt lat="50.372078" lon="6.985603">
        <ele>558.4</ele>
      </trkpt>
      <trkpt lat="50.37196" lon="6.985568">
        <ele>559.2</ele>
      </trkpt>
      <trkpt lat="50.371896" lon="6.985573">
        <ele>559.8</ele>
      </trkpt>
      <trkpt lat="50.371816" lon="6.985609">
        <ele>560.4</ele>
      </trkpt>
      <trkpt lat="50.371759" lon="6.985689">
        <ele>560.6</ele>
      </trkpt>
      <trkpt lat="50.371705" lon="6.985796">
        <ele>560.4</ele>
      </trkpt>
      <trkpt lat="50.371677" lon="6.985918">
        <ele>560.0</ele>
      </trkpt>
      <trkpt lat="50.371675" lon="6.986037">
        <ele>559.6</ele>
      </trkpt>
      <trkpt lat="50.371702" lon="6.986159">
        <ele>558.8</ele>
      </trkpt>
      <trkpt lat="50.371749" lon="6.986304">
        <ele>557.8</ele>
      </trkpt>
      <trkpt lat="50.371876" lon="6.986417">
        <ele>556.8</ele>
      </trkpt>
      <trkpt lat="50.37195" lon="6.986495">
        <ele>556.4</ele>
      </trkpt>
      <trkpt lat="50.372128" lon="6.986644">
        <ele>555.8</ele>
      </trkpt>
      <trkpt lat="50.37223" lon="6.986768">
        <ele>555.4</ele>
      </trkpt>
      <trkpt lat="50.372358" lon="6.986961">
        <ele>554.8</ele>
      </trkpt>
      <trkpt lat="50.372495" lon="6.987241">
        <ele>554.2</ele>
      </trkpt>
      <trkpt lat="50.372636" lon="6.987504">
        <ele>554.2</ele>
      </trkpt>
      <trkpt lat="50.372713" lon="6.987709">
        <ele>553.6</ele>
      </trkpt>
      <trkpt lat="50.37284" lon="6.988212">
        <ele>552.6</ele>
      </trkpt>
      <trkpt lat="50.373177" lon="6.989878">
        <ele>558.6</ele>
      </trkpt>
      <trkpt lat="50.373248" lon="6.990261">
        <ele>561.8</ele>
      </trkpt>
      <trkpt lat="50.37327" lon="6.990422">
        <ele>562.4</ele>
      </trkpt>
      <trkpt lat="50.373292" lon="6.990672">
        <ele>563.6</ele>
      </trkpt>
      <trkpt lat="50.373305" lon="6.990913">
        <ele>565.0</ele>
      </trkpt>
      <trkpt lat="50.373317" lon="6.991072">
        <ele>566.0</ele>
      </trkpt>
      <trkpt lat="50.373339" lon="6.991312">
        <ele>567.6</ele>
      </trkpt>
      <trkpt lat="50.373372" lon="6.991514">
        <ele>569.8</ele>
      </trkpt>
      <trkpt lat="50.373415" lon="6.991684">
        <ele>571.6</ele>
      </trkpt>
      <trkpt lat="50.373492" lon="6.99187">
        <ele>573.8</ele>
      </trkpt>
      <trkpt lat="50.373656" lon="6.992199">
        <ele>577.6</ele>
      </trkpt>
      <trkpt lat="50.373793" lon="6.99247">
        <ele>580.8</ele>
      </trkpt>
      <trkpt lat="50.373908" lon="6.992711">
        <ele>583.6</ele>
      </trkpt>
      <trkpt lat="50.374023" lon="6.992907">
        <ele>585.6</ele>
      </trkpt>
      <trkpt lat="50.37413" lon="6.993078">
        <ele>587.2</ele>
      </trkpt>
      <trkpt lat="50.374177" lon="6.993164">
        <ele>588.0</ele>
      </trkpt>
      <trkpt lat="50.374376" lon="6.993397">
        <ele>590.8</ele>
      </trkpt>
      <trkpt lat="50.374567" lon="6.993596">
        <ele>594.6</ele>
      </trkpt>
      <trkpt lat="50.374757" lon="6.993764">
        <ele>597.2</ele>
      </trkpt>
      <trkpt lat="50.374853" lon="6.99385">
        <ele>598.6</ele>
      </trkpt>
      <trkpt lat="50.37499" lon="6.993923">
        <ele>600.6</ele>
      </trkpt>
      <trkpt lat="50.375101" lon="6.993941">
        <ele>602.2</ele>
      </trkpt>
      <trkpt lat="50.375307" lon="6.993888">
        <ele>604.8</ele>
      </trkpt>
      <trkpt lat="50.375473" lon="6.993842">
        <ele>607.0</ele>
      </trkpt>
      <trkpt lat="50.375617" lon="6.993804">
        <ele>608.8</ele>
      </trkpt>
      <trkpt lat="50.375733" lon="6.993816">
        <ele>610.4</ele>
      </trkpt>
      <trkpt lat="50.375863" lon="6.993864">
        <ele>612.2</ele>
      </trkpt>
      <trkpt lat="50.375939" lon="6.993901">
        <ele>613.2</ele>
      </trkpt>
      <trkpt lat="50.376082" lon="6.994047">
        <ele>614.6</ele>
      </trkpt>
      <trkpt lat="50.376246" lon="6.994237">
        <ele>615.8</ele>
      </trkpt>
      <trkpt lat="50.376459" lon="6.994467">
        <ele>616.8</ele>
      </trkpt>
      <trkpt lat="50.376643" lon="6.994677">
        <ele>618.0</ele>
      </trkpt>
      <trkpt lat="50.376768" lon="6.994813">
        <ele>618.6</ele>
      </trkpt>
      <trkpt lat="50.376832" lon="6.994953">
        <ele>618.6</ele>
      </trkpt>
      <trkpt lat="50.376872" lon="6.995074">
        <ele>618.2</ele>
      </trkpt>
      <trkpt lat="50.376909" lon="6.995308">
        <ele>618.2</ele>
      </trkpt>
      <trkpt lat="50.37691" lon="6.995531">
        <ele>618.6</ele>
      </trkpt>
      <trkpt lat="50.376887" lon="6.995666">
        <ele>618.4</ele>
      </trkpt>
      <trkpt lat="50.376836" lon="6.995871">
        <ele>618.8</ele>
      </trkpt>
      <trkpt lat="50.376729" lon="6.996195">
        <ele>619.0</ele>
      </trkpt>
      <trkpt lat="50.376653" lon="6.996405">
        <ele>619.2</ele>
      </trkpt>
      <trkpt lat="50.376614" lon="6.996534">
        <ele>619.6</ele>
      </trkpt>
      <trkpt lat="50.376582" lon="6.996662">
        <ele>620.2</ele>
      </trkpt>
      <trkpt lat="50.376536" lon="6.99685">
        <ele>621.2</ele>
      </trkpt>
      <trkpt lat="50.37651" lon="6.997094">
        <ele>620.4</ele>
      </trkpt>
      <trkpt lat="50.376447" lon="6.99755">
        <ele>618.2</ele>
      </trkpt>
      <trkpt lat="50.376302" lon="6.99835">
        <ele>614.0</ele>
      </trkpt>
      <trkpt lat="50.376256" lon="6.99856">
        <ele>613.6</ele>
      </trkpt>
      <trkpt lat="50.376207" lon="6.998831">
        <ele>613.0</ele>
      </trkpt>
      <trkpt lat="50.376129" lon="6.999089">
        <ele>612.0</ele>
      </trkpt>
      <trkpt lat="50.376042" lon="6.999278">
        <ele>611.0</ele>
      </trkpt>
      <trkpt lat="50.37594" lon="6.999449">
        <ele>609.6</ele>
      </trkpt>
      <trkpt lat="50.375857" lon="6.999563">
        <ele>608.4</ele>
      </trkpt>
      <trkpt lat="50.375706" lon="6.99972">
        <ele>606.8</ele>
      </trkpt>
      <trkpt lat="50.375537" lon="6.999897">
        <ele>605.4</ele>
      </trkpt>
      <trkpt lat="50.375416" lon="7.000042">
        <ele>604.2</ele>
      </trkpt>
      <trkpt lat="50.375336" lon="7.000187">
        <ele>603.6</ele>
      </trkpt>
      <trkpt lat="50.37527" lon="7.000383">
        <ele>602.8</ele>
      </trkpt>
      <trkpt lat="50.375214" lon="7.000586">
        <ele>602.4</ele>
      </trkpt>
      <trkpt lat="50.375182" lon="7.00071">
        <ele>602.2</ele>
      </trkpt>
      <trkpt lat="50.375132" lon="7.000922">
        <ele>600.4</ele>
      </trkpt>
      <trkpt lat="50.375107" lon="7.001133">
        <ele>598.8</ele>
      </trkpt>
      <trkpt lat="50.375082" lon="7.001465">
        <ele>597.0</ele>
      </trkpt>
      <trkpt lat="50.375066" lon="7.001726">
        <ele>596.0</ele>
      </trkpt>
      <trkpt lat="50.375022" lon="7.001969">
        <ele>594.8</ele>
      </trkpt>
      <trkpt lat="50.37494" lon="7.002164">
        <ele>593.4</ele>
      </trkpt>
      <trkpt lat="50.374839" lon="7.002326">
        <ele>591.4</ele>
      </trkpt>
      <trkpt lat="50.374577" lon="7.002682">
        <ele>587.6</ele>
      </trkpt>
      <trkpt lat="50.374307" lon="7.003056">
        <ele>587.4</ele>
      </trkpt>
      <trkpt lat="50.373986" lon="7.003444">
        <ele>590.8</ele>
      </trkpt>
      <trkpt lat="50.373883" lon="7.003568">
        <ele>591.4</ele>
      </trkpt>
      <trkpt lat="50.373765" lon="7.003637">
        <ele>591.0</ele>
      </trkpt>
      <trkpt lat="50.373619" lon="7.003674">
        <ele>590.6</ele>
      </trkpt>
      <trkpt lat="50.373487" lon="7.00369">
        <ele>590.0</ele>
      </trkpt>
      <trkpt lat="50.373276" lon="7.003636">
        <ele>588.8</ele>
      </trkpt>
      <trkpt lat="50.373177" lon="7.003585">
        <ele>588.0</ele>
      </trkpt>
      <trkpt lat="50.373063" lon="7.003516">
        <ele>586.0</ele>
      </trkpt>
      <trkpt lat="50.372912" lon="7.003391">
        <ele>583.8</ele>
      </trkpt>
      <trkpt lat="50.372735" lon="7.003244">
        <ele>582.2</ele>
      </trkpt>
      <trkpt lat="50.372674" lon="7.003199">
        <ele>582.0</ele>
      </trkpt>
      <trkpt lat="50.372395" lon="7.00305">
        <ele>578.4</ele>
      </trkpt>
      <trkpt lat="50.372047" lon="7.002881">
        <ele>573.4</ele>
      </trkpt>
      <trkpt lat="50.3719" lon="7.00283">
        <ele>571.4</ele>
      </trkpt>
      <trkpt lat="50.371818" lon="7.002828">
        <ele>570.2</ele>
      </trkpt>
      <trkpt lat="50.37174" lon="7.002847">
        <ele>569.4</ele>
      </trkpt>
      <trkpt lat="50.371675" lon="7.002881">
        <ele>568.6</ele>
      </trkpt>
      <trkpt lat="50.371586" lon="7.002938">
        <ele>567.6</ele>
      </trkpt>
      <trkpt lat="50.37147" lon="7.003049">
        <ele>566.2</ele>
      </trkpt>
      <trkpt lat="50.371377" lon="7.00321">
        <ele>565.2</ele>
      </trkpt>
      <trkpt lat="50.371285" lon="7.003341">
        <ele>564.4</ele>
      </trkpt>
      <trkpt lat="50.371185" lon="7.003506">
        <ele>563.4</ele>
      </trkpt>
      <trkpt lat="50.371151" lon="7.003599">
        <ele>562.6</ele>
      </trkpt>
      <trkpt lat="50.37108" lon="7.003831">
        <ele>560.6</ele>
      </trkpt>
      <trkpt lat="50.371017" lon="7.004188">
        <ele>557.0</ele>
      </trkpt>
      <trkpt lat="50.370978" lon="7.004476">
        <ele>553.6</ele>
      </trkpt>
      <trkpt lat="50.370962" lon="7.004586">
        <ele>552.2</ele>
      </trkpt>
      <trkpt lat="50.370938" lon="7.004727">
        <ele>550.8</ele>
      </trkpt>
      <trkpt lat="50.370887" lon="7.004896">
        <ele>549.2</ele>
      </trkpt>
      <trkpt lat="50.370826" lon="7.005036">
        <ele>547.4</ele>
      </trkpt>
      <trkpt lat="50.370771" lon="7.005129">
        <ele>546.2</ele>
      </trkpt>
      <trkpt lat="50.370706" lon="7.005221">
        <ele>545.2</ele>
      </trkpt>
      <trkpt lat="50.370599" lon="7.005308">
        <ele>544.0</ele>
      </trkpt>
      <trkpt lat="50.370482" lon="7.005338">
        <ele>542.8</ele>
      </trkpt>
      <trkpt lat="50.370238" lon="7.00538">
        <ele>541.4</ele>
      </trkpt>
      <trkpt lat="50.37008" lon="7.005401">
        <ele>540.8</ele>
      </trkpt>
      <trkpt lat="50.369757" lon="7.005454">
        <ele>540.2</ele>
      </trkpt>
      <trkpt lat="50.369449" lon="7.005504">
        <ele>540.8</ele>
      </trkpt>
      <trkpt lat="50.369296" lon="7.005522">
        <ele>541.4</ele>
      </trkpt>
      <trkpt lat="50.369181" lon="7.005525">
        <ele>543.4</ele>
      </trkpt>
      <trkpt lat="50.36908" lon="7.005488">
        <ele>544.8</ele>
      </trkpt>
      <trkpt lat="50.368968" lon="7.005413">
        <ele>546.4</ele>
      </trkpt>
      <trkpt lat="50.368861" lon="7.00528">
        <ele>547.6</ele>
      </trkpt>
      <trkpt lat="50.368795" lon="7.005141">
        <ele>548.6</ele>
      </trkpt>
      <trkpt lat="50.368739" lon="7.004922">
        <ele>550.8</ele>
      </trkpt>
      <trkpt lat="50.36872" lon="7.004679">
        <ele>552.6</ele>
      </trkpt>
      <trkpt lat="50.36872" lon="7.004505">
        <ele>553.4</ele>
      </trkpt>
      <trkpt lat="50.368731" lon="7.0038">
        <ele>555.6</ele>
      </trkpt>
      <trkpt lat="50.368791" lon="7.00275">
        <ele>554.0</ele>
      </trkpt>
      <trkpt lat="50.368804" lon="7.002603">
        <ele>553.6</ele>
      </trkpt>
      <trkpt lat="50.368797" lon="7.002341">
        <ele>554.0</ele>
      </trkpt>
      <trkpt lat="50.368791" lon="7.002029">
        <ele>554.6</ele>
      </trkpt>
      <trkpt lat="50.368769" lon="7.001837">
        <ele>555.6</ele>
      </trkpt>
      <trkpt lat="50.36871" lon="7.001647">
        <ele>557.8</ele>
      </trkpt>
      <trkpt lat="50.368644" lon="7.001512">
        <ele>559.6</ele>
      </trkpt>
      <trkpt lat="50.368569" lon="7.001404">
        <ele>561.0</ele>
      </trkpt>
      <trkpt lat="50.368485" lon="7.001343">
        <ele>562.4</ele>
      </trkpt>
      <trkpt lat="50.368348" lon="7.0013">
        <ele>564.2</ele>
      </trkpt>
      <trkpt lat="50.368153" lon="7.001214">
        <ele>565.6</ele>
      </trkpt>
      <trkpt lat="50.368098" lon="7.001178">
        <ele>565.4</ele>
      </trkpt>
      <trkpt lat="50.367969" lon="7.001064">
        <ele>565.0</ele>
      </trkpt>
      <trkpt lat="50.367626" lon="7.000655">
        <ele>563.8</ele>
      </trkpt>
      <trkpt lat="50.367425" lon="7.000384">
        <ele>561.8</ele>
      </trkpt>
      <trkpt lat="50.36711" lon="7.000036">
        <ele>558.4</ele>
      </trkpt>
      <trkpt lat="50.367007" lon="6.999965">
        <ele>557.2</ele>
      </trkpt>
      <trkpt lat="50.36688" lon="6.999875">
        <ele>555.4</ele>
      </trkpt>
      <trkpt lat="50.366371" lon="6.999571">
        <ele>548.6</ele>
      </trkpt>
      <trkpt lat="50.366234" lon="6.999518">
        <ele>547.4</ele>
      </trkpt>
      <trkpt lat="50.366132" lon="6.999516">
        <ele>546.6</ele>
      </trkpt>
      <trkpt lat="50.365972" lon="6.999535">
        <ele>545.2</ele>
      </trkpt>
      <trkpt lat="50.365737" lon="6.999579">
        <ele>543.2</ele>
      </trkpt>
      <trkpt lat="50.365516" lon="6.999619">
        <ele>541.6</ele>
      </trkpt>
      <trkpt lat="50.365399" lon="6.999643">
        <ele>541.0</ele>
      </trkpt>
      <trkpt lat="50.365263" lon="6.999639">
        <ele>540.8</ele>
      </trkpt>
      <trkpt lat="50.365025" lon="6.999613">
        <ele>540.2</ele>
      </trkpt>
      <trkpt lat="50.364829" lon="6.999581">
        <ele>539.8</ele>
      </trkpt>
      <trkpt lat="50.364695" lon="6.999596">
        <ele>539.4</ele>
      </trkpt>
      <trkpt lat="50.364583" lon="6.999607">
        <ele>539.0</ele>
      </trkpt>
      <trkpt lat="50.364338" lon="6.999621">
        <ele>538.0</ele>
      </trkpt>
      <trkpt lat="50.36416" lon="6.99964">
        <ele>538.6</ele>
      </trkpt>
      <trkpt lat="50.364042" lon="6.999624">
        <ele>539.0</ele>
      </trkpt>
      <trkpt lat="50.363931" lon="6.999619">
        <ele>539.4</ele>
      </trkpt>
      <trkpt lat="50.363826" lon="6.999578">
        <ele>540.0</ele>
      </trkpt>
      <trkpt lat="50.363763" lon="6.999548">
        <ele>540.2</ele>
      </trkpt>
      <trkpt lat="50.363641" lon="6.99944">
        <ele>541.6</ele>
      </trkpt>
      <trkpt lat="50.363503" lon="6.999266">
        <ele>543.2</ele>
      </trkpt>
      <trkpt lat="50.36333" lon="6.999028">
        <ele>545.0</ele>
      </trkpt>
      <trkpt lat="50.363219" lon="6.998857">
        <ele>545.8</ele>
      </trkpt>
      <trkpt lat="50.363171" lon="6.998761">
        <ele>546.0</ele>
      </trkpt>
      <trkpt lat="50.363114" lon="6.998564">
        <ele>545.8</ele>
      </trkpt>
      <trkpt lat="50.363039" lon="6.998214">
        <ele>546.0</ele>
      </trkpt>
      <trkpt lat="50.362967" lon="6.997708">
        <ele>547.4</ele>
      </trkpt>
      <trkpt lat="50.362928" lon="6.997531">
        <ele>548.0</ele>
      </trkpt>
      <trkpt lat="50.362889" lon="6.99733">
        <ele>548.6</ele>
      </trkpt>
      <trkpt lat="50.362836" lon="6.997159">
        <ele>548.6</ele>
      </trkpt>
      <trkpt lat="50.362772" lon="6.996989">
        <ele>548.4</ele>
      </trkpt>
      <trkpt lat="50.362689" lon="6.996834">
        <ele>548.0</ele>
      </trkpt>
      <trkpt lat="50.362551" lon="6.996588">
        <ele>548.2</ele>
      </trkpt>
      <trkpt lat="50.362404" lon="6.996389">
        <ele>547.6</ele>
      </trkpt>
      <trkpt lat="50.362191" lon="6.996038">
        <ele>546.8</ele>
      </trkpt>
      <trkpt lat="50.362006" lon="6.995768">
        <ele>546.6</ele>
      </trkpt>
      <trkpt lat="50.361826" lon="6.99551">
        <ele>546.0</ele>
      </trkpt>
      <trkpt lat="50.361689" lon="6.995364">
        <ele>545.8</ele>
      </trkpt>
      <trkpt lat="50.361581" lon="6.995242">
        <ele>546.0</ele>
      </trkpt>
      <trkpt lat="50.361525" lon="6.995185">
        <ele>546.0</ele>
      </trkpt>
      <trkpt lat="50.361339" lon="6.995029">
        <ele>544.2</ele>
      </trkpt>
      <trkpt lat="50.360918" lon="6.994714">
        <ele>539.8</ele>
      </trkpt>
      <trkpt lat="50.360611" lon="6.99449">
        <ele>539.4</ele>
      </trkpt>
      <trkpt lat="50.360461" lon="6.994346">
        <ele>538.8</ele>
      </trkpt>
      <trkpt lat="50.360268" lon="6.994149">
        <ele>538.4</ele>
      </trkpt>
      <trkpt lat="50.360158" lon="6.994028">
        <ele>538.0</ele>
      </trkpt>
      <trkpt lat="50.360107" lon="6.993946">
        <ele>537.2</ele>
      </trkpt>
      <trkpt lat="50.359996" lon="6.993773">
        <ele>536.0</ele>
      </trkpt>
      <trkpt lat="50.359874" lon="6.993582">
        <ele>534.6</ele>
      </trkpt>
      <trkpt lat="50.359793" lon="6.993432">
        <ele>535.0</ele>
      </trkpt>
      <trkpt lat="50.359718" lon="6.99319">
        <ele>535.6</ele>
      </trkpt>
      <trkpt lat="50.359639" lon="6.992923">
        <ele>535.8</ele>
      </trkpt>
      <trkpt lat="50.3596" lon="6.992796">
        <ele>535.6</ele>
      </trkpt>
      <trkpt lat="50.359528" lon="6.992604">
        <ele>535.2</ele>
      </trkpt>
      <trkpt lat="50.359412" lon="6.992384">
        <ele>535.0</ele>
      </trkpt>
      <trkpt lat="50.359276" lon="6.992115">
        <ele>534.8</ele>
      </trkpt>
      <trkpt lat="50.35917" lon="6.991925">
        <ele>534.6</ele>
      </trkpt>
      <trkpt lat="50.359115" lon="6.991778">
        <ele>534.4</ele>
      </trkpt>
      <trkpt lat="50.359023" lon="6.991516">
        <ele>534.2</ele>
      </trkpt>
      <trkpt lat="50.358938" lon="6.991041">
        <ele>533.4</ele>
      </trkpt>
      <trkpt lat="50.358839" lon="6.990346">
        <ele>532.6</ele>
      </trkpt>
      <trkpt lat="50.358798" lon="6.990089">
        <ele>532.6</ele>
      </trkpt>
      <trkpt lat="50.358722" lon="6.989701">
        <ele>532.8</ele>
      </trkpt>
      <trkpt lat="50.358586" lon="6.989098">
        <ele>530.8</ele>
      </trkpt>
      <trkpt lat="50.358361" lon="6.988132">
        <ele>532.4</ele>
      </trkpt>
      <trkpt lat="50.358216" lon="6.987455">
        <ele>532.0</ele>
      </trkpt>
      <trkpt lat="50.358147" lon="6.986964">
        <ele>531.8</ele>
      </trkpt>
      <trkpt lat="50.358121" lon="6.986635">
        <ele>532.2</ele>
      </trkpt>
      <trkpt lat="50.358125" lon="6.98637">
        <ele>532.8</ele>
      </trkpt>
      <trkpt lat="50.358113" lon="6.986129">
        <ele>533.0</ele>
      </trkpt>
      <trkpt lat="50.358167" lon="6.985829">
        <ele>533.8</ele>
      </trkpt>
      <trkpt lat="50.35822" lon="6.985612">
        <ele>535.0</ele>
      </trkpt>
      <trkpt lat="50.358367" lon="6.985279">
        <ele>537.2</ele>
      </trkpt>
      <trkpt lat="50.358555" lon="6.984961">
        <ele>538.8</ele>
      </trkpt>
      <trkpt lat="50.35874" lon="6.984611">
        <ele>540.2</ele>
      </trkpt>
      <trkpt lat="50.358869" lon="6.984319">
        <ele>542.0</ele>
      </trkpt>
      <trkpt lat="50.35892" lon="6.984075">
        <ele>543.4</ele>
      </trkpt>
      <trkpt lat="50.358926" lon="6.983787">
        <ele>544.2</ele>
      </trkpt>
      <trkpt lat="50.358904" lon="6.983577">
        <ele>545.0</ele>
      </trkpt>
      <trkpt lat="50.358846" lon="6.983382">
        <ele>545.6</ele>
      </trkpt>
      <trkpt lat="50.35876" lon="6.983128">
        <ele>546.8</ele>
      </trkpt>
      <trkpt lat="50.358702" lon="6.98298">
        <ele>547.0</ele>
      </trkpt>
      <trkpt lat="50.358487" lon="6.982459">
        <ele>546.6</ele>
      </trkpt>
      <trkpt lat="50.358102" lon="6.981585">
        <ele>548.6</ele>
      </trkpt>
      <trkpt lat="50.358025" lon="6.981451">
        <ele>549.0</ele>
      </trkpt>
      <trkpt lat="50.357959" lon="6.981333">
        <ele>549.4</ele>
      </trkpt>
      <trkpt lat="50.357804" lon="6.981221">
        <ele>550.4</ele>
      </trkpt>
      <trkpt lat="50.357705" lon="6.981206">
        <ele>550.8</ele>
      </trkpt>
      <trkpt lat="50.357534" lon="6.981276">
        <ele>551.6</ele>
      </trkpt>
      <trkpt lat="50.3574" lon="6.981433">
        <ele>552.2</ele>
      </trkpt>
      <trkpt lat="50.357165" lon="6.981747">
        <ele>553.0</ele>
      </trkpt>
      <trkpt lat="50.357068" lon="6.98191">
        <ele>553.0</ele>
      </trkpt>
      <trkpt lat="50.356899" lon="6.982252">
        <ele>552.2</ele>
      </trkpt>
      <trkpt lat="50.356796" lon="6.982553">
        <ele>551.6</ele>
      </trkpt>
      <trkpt lat="50.356617" lon="6.983279">
        <ele>549.4</ele>
      </trkpt>
      <trkpt lat="50.356409" lon="6.984224">
        <ele>549.8</ele>
      </trkpt>
      <trkpt lat="50.356218" lon="6.985138">
        <ele>555.2</ele>
      </trkpt>
      <trkpt lat="50.356171" lon="6.985308">
        <ele>556.2</ele>
      </trkpt>
      <trkpt lat="50.356089" lon="6.985432">
        <ele>557.8</ele>
      </trkpt>
      <trkpt lat="50.355973" lon="6.98556">
        <ele>559.8</ele>
      </trkpt>
      <trkpt lat="50.35581" lon="6.98572">
        <ele>561.2</ele>
      </trkpt>
      <trkpt lat="50.355721" lon="6.985804">
        <ele>561.6</ele>
      </trkpt>
      <trkpt lat="50.35557" lon="6.985957">
        <ele>562.2</ele>
      </trkpt>
      <trkpt lat="50.355498" lon="6.986013">
        <ele>562.6</ele>
      </trkpt>
      <trkpt lat="50.355294" lon="6.986118">
        <ele>562.6</ele>
      </trkpt>
      <trkpt lat="50.355096" lon="6.986211">
        <ele>562.2</ele>
      </trkpt>
      <trkpt lat="50.354966" lon="6.986254">
        <ele>562.0</ele>
      </trkpt>
      <trkpt lat="50.354844" lon="6.986306">
        <ele>561.8</ele>
      </trkpt>
      <trkpt lat="50.354707" lon="6.986323">
        <ele>561.2</ele>
      </trkpt>
      <trkpt lat="50.354596" lon="6.986332">
        <ele>560.6</ele>
      </trkpt>
      <trkpt lat="50.354497" lon="6.986331">
        <ele>560.0</ele>
      </trkpt>
      <trkpt lat="50.354421" lon="6.986316">
        <ele>559.6</ele>
      </trkpt>
      <trkpt lat="50.354277" lon="6.986274">
        <ele>558.8</ele>
      </trkpt>
      <trkpt lat="50.354145" lon="6.986211">
        <ele>558.2</ele>
      </trkpt>
      <trkpt lat="50.354014" lon="6.986127">
        <ele>557.4</ele>
      </trkpt>
      <trkpt lat="50.353863" lon="6.985981">
        <ele>556.6</ele>
      </trkpt>
      <trkpt lat="50.353769" lon="6.985892">
        <ele>556.0</ele>
      </trkpt>
      <trkpt lat="50.353637" lon="6.985712">
        <ele>555.2</ele>
      </trkpt>
      <trkpt lat="50.353545" lon="6.985546">
        <ele>555.0</ele>
      </trkpt>
      <trkpt lat="50.353424" lon="6.985308">
        <ele>554.8</ele>
      </trkpt>
      <trkpt lat="50.353217" lon="6.984708">
        <ele>556.6</ele>
      </trkpt>
      <trkpt lat="50.352815" lon="6.983519">
        <ele>554.8</ele>
      </trkpt>
      <trkpt lat="50.352692" lon="6.98316">
        <ele>554.2</ele>
      </trkpt>
      <trkpt lat="50.352479" lon="6.982655">
        <ele>555.2</ele>
      </trkpt>
      <trkpt lat="50.352168" lon="6.981799">
        <ele>554.8</ele>
      </trkpt>
      <trkpt lat="50.351842" lon="6.980983">
        <ele>551.0</ele>
      </trkpt>
      <trkpt lat="50.351703" lon="6.980611">
        <ele>550.4</ele>
      </trkpt>
      <trkpt lat="50.350922" lon="6.978571">
        <ele>545.6</ele>
      </trkpt>
      <trkpt lat="50.349502" lon="6.974885">
        <ele>546.6</ele>
      </trkpt>
      <trkpt lat="50.348544" lon="6.972403">
        <ele>548.8</ele>
      </trkpt>
      <trkpt lat="50.347739" lon="6.970424">
        <ele>553.2</ele>
      </trkpt>
      <trkpt lat="50.34687" lon="6.968249">
        <ele>563.2</ele>
      </trkpt>
      <trkpt lat="50.345418" lon="6.964662">
        <ele>574.0</ele>
      </trkpt>
      <trkpt lat="50.344193" lon="6.961642">
        <ele>586.6</ele>
      </trkpt>
      <trkpt lat="50.343852" lon="6.960782">
        <ele>590.0</ele>
      </trkpt>
      <trkpt lat="50.343681" lon="6.960356">
        <ele>589.8</ele>
      </trkpt>
      <trkpt lat="50.34352" lon="6.959983">
        <ele>589.0</ele>
      </trkpt>
      <trkpt lat="50.343349" lon="6.959592">
        <ele>587.8</ele>
      </trkpt>
      <trkpt lat="50.343164" lon="6.959304">
        <ele>586.8</ele>
      </trkpt>
      <trkpt lat="50.342945" lon="6.958969">
        <ele>586.4</ele>
      </trkpt>
      <trkpt lat="50.342605" lon="6.958521">
        <ele>586.6</ele>
      </trkpt>
      <trkpt lat="50.342189" lon="6.957969">
        <ele>583.8</ele>
      </trkpt>
      <trkpt lat="50.341721" lon="6.957385">
        <ele>582.2</ele>
      </trkpt>
      <trkpt lat="50.341425" lon="6.956955">
        <ele>582.6</ele>
      </trkpt>
      <trkpt lat="50.340976" lon="6.9564">
        <ele>588.8</ele>
      </trkpt>
      <trkpt lat="50.340849" lon="6.956219">
        <ele>589.6</ele>
      </trkpt>
      <trkpt lat="50.340586" lon="6.955952">
        <ele>591.0</ele>
      </trkpt>
      <trkpt lat="50.340318" lon="6.955724">
        <ele>593.4</ele>
      </trkpt>
      <trkpt lat="50.340159" lon="6.95561">
        <ele>595.2</ele>
      </trkpt>
      <trkpt lat="50.339924" lon="6.955414">
        <ele>597.6</ele>
      </trkpt>
      <trkpt lat="50.339709" lon="6.955193">
        <ele>599.6</ele>
      </trkpt>
      <trkpt lat="50.33957" lon="6.955025">
        <ele>600.6</ele>
      </trkpt>
      <trkpt lat="50.339205" lon="6.95444">
        <ele>604.0</ele>
      </trkpt>
      <trkpt lat="50.338988" lon="6.954091">
        <ele>606.6</ele>
      </trkpt>
      <trkpt lat="50.338844" lon="6.953876">
        <ele>608.6</ele>
      </trkpt>
      <trkpt lat="50.338719" lon="6.953721">
        <ele>609.4</ele>
      </trkpt>
      <trkpt lat="50.338595" lon="6.953637">
        <ele>608.8</ele>
      </trkpt>
      <trkpt lat="50.338376" lon="6.953483">
        <ele>608.0</ele>
      </trkpt>
      <trkpt lat="50.338287" lon="6.953409">
        <ele>607.8</ele>
      </trkpt>
      <trkpt lat="50.338196" lon="6.953331">
        <ele>607.6</ele>
      </trkpt>
      <trkpt lat="50.338137" lon="6.953208">
        <ele>608.0</ele>
      </trkpt>
      <trkpt lat="50.3381" lon="6.953046">
        <ele>608.6</ele>
      </trkpt>
      <trkpt lat="50.338089" lon="6.952808">
        <ele>609.8</ele>
      </trkpt>
      <trkpt lat="50.338119" lon="6.952526">
        <ele>611.4</ele>
      </trkpt>
      <trkpt lat="50.338139" lon="6.952285">
        <ele>612.4</ele>
      </trkpt>
      <trkpt lat="50.338101" lon="6.952135">
        <ele>613.2</ele>
      </trkpt>
      <trkpt lat="50.338006" lon="6.951876">
        <ele>614.8</ele>
      </trkpt>
      <trkpt lat="50.337902" lon="6.951593">
        <ele>615.6</ele>
      </trkpt>
      <trkpt lat="50.337784" lon="6.951345">
        <ele>616.6</ele>
      </trkpt>
      <trkpt lat="50.337743" lon="6.951195">
        <ele>617.2</ele>
      </trkpt>
      <trkpt lat="50.337746" lon="6.95101">
        <ele>618.0</ele>
      </trkpt>
      <trkpt lat="50.33783" lon="6.950749">
        <ele>619.0</ele>
      </trkpt>
      <trkpt lat="50.33799" lon="6.950403">
        <ele>620.8</ele>
      </trkpt>
      <trkpt lat="50.338106" lon="6.950149">
        <ele>622.6</ele>
      </trkpt>
      <trkpt lat="50.33832" lon="6.949784">
        <ele>624.0</ele>
      </trkpt>
      <trkpt lat="50.338685" lon="6.949233">
        <ele>624.8</ele>
      </trkpt>
    </trkseg>
  </trk>
</gpx>
